1 27386U 02009A   04147.78871846 +.00000067 +00000-0 +41062-4 0  9992
2 27386 098.5491 214.7333 0001225 099.7749 260.3577 14.32246387117056
1 27386U 02009A   04148.06815994  .00000067  00000-0  41062-4 0  9996
2 27386  98.5491 215.0087 0001225  98.9504 261.1818 14.32246449117096
1 27386U 02009A   04148.48732228 +.00000067 +00000-0 +41062-4 0  9990
2 27386 098.5491 215.4218 0001225 097.7136 262.4187 14.32246542117158
1 27386U 02009A   04149.04620534  .00000139  00000-0  67688-4 0  9991
2 27386  98.5487 215.9722 0001208  97.5809 262.5522 14.32246987117230
1 27386U 02009A   04149.74480957 -.00000060 +00000-0 -61830-5 0  9990
2 27386 098.5489 216.6613 0001172 093.8772 266.2534 14.32246052117335
1 27386U 02009A   04150.51327401 -.00000001  00000-0  15686-4 0  9992
2 27386  98.5486 217.4189 0001169  96.8291 263.3040 14.32246417117441
1 27386U 02009A   04150.79271530 -.00000039  00000-0  17846-5 0  9995
2 27386  98.5486 217.6942 0001209  98.1909 261.9416 14.32246352117489
1 27386U 02009A   04152.39950433 -.00000039  00000-0  17846-5 0  9999
2 27386  98.5483 219.2769 0001202  94.8134 265.3199 14.32246395117716
1 27386U 02009A   04153.44741000  .00000014  00000-0  21511-4 0  9999
2 27386  98.5483 220.3099 0001196  93.9060 266.2296 14.32246917117869
1 27386U 02009A   04153.93643188  .00000028  00000-0  26452-4 0  9995
2 27386  98.5486 220.7922 0001201  93.4684 266.6643 14.32247065117938
1 27386U 02009A   04154.49531464  .00000048  00000-0  33895-4 0  9991
2 27386  98.5487 221.3436 0001186  93.6045 266.5296 14.32247346118016
1 27386U 02009A   04154.84461579  .00000057  00000-0  37403-4 0  9998
2 27386  98.5487 221.6879 0001206  92.5391 267.5922 14.32247459118062
1 27386U 02009A   04155.12405735  .00000074  00000-0  43676-4 0  9990
2 27386  98.5488 221.9633 0001187  94.1170 266.0167 14.32247664118103
1 27386U 02009A   04155.33363807  .00000050  00000-0  34550-4 0  9991
2 27386  98.5489 222.1701 0001184  94.9401 265.1916 14.32247542118135
1 27386U 02009A   04155.82266046  .00000045  00000-0  32719-4 0  9991
2 27386  98.5487 222.6519 0001167  91.5195 268.6117 14.32247576118205
1 27386U 02009A   04155.89252091 +.00000024 +00000-0 +25152-4 0  9993
2 27386 098.5487 222.7207 0001183 091.8173 268.3133 14.32247412118212
1 27386U 02009A   04156.17196254  .00000035  00000-0  29260-4 0  9999
2 27386  98.5488 222.9962 0001165  92.4680 267.6650 14.32247554118250
1 27386U 02009A   04156.52126405  .00000024  00000-0  25002-4 0  9997
2 27386  98.5488 223.3408 0001168  92.3489 267.7830 14.32247524118303
1 27386U 02009A   04156.87056556  .00000026  00000-0  25636-4 0  9999
2 27386  98.5487 223.6852 0001190  92.4020 267.7295 14.32247604118354
1 27386U 02009A   04157.15000687  .00000044  00000-0  32554-4 0  9992
2 27386  98.5487 223.9609 0001173  93.6039 266.5289 14.32247803118396
1 27386U 02009A   04157.49930819  .00000059  00000-0  37945-4 0  9993
2 27386  98.5487 224.3052 0001162  93.1045 267.0273 14.32247960118442
1 27386U 02009A   04157.84860977  .00000048  00000-0  34142-4 0  9993
2 27386  98.5486 224.6496 0001184  92.7387 267.3924 14.32247922118493
1 27386U 02009A   04157.91847025 +.00000045 +00000-0 +32989-4 0  9994
2 27386 098.5486 224.7185 0001184 092.6166 267.5152 14.32247915118502
1 27386U 02009A   04158.19791129  .00000045  00000-0  32758-4 0  9992
2 27386  98.5487 224.9939 0001160  93.1205 267.0111 14.32248018118545
1 27386U 02009A   04158.47735254  .00000045  00000-0  32758-4 0  9990
2 27386  98.5487 225.2693 0001160  92.2959 267.8357 14.32248067118580
1 27386U 02009A   04158.82665409  .00000045  00000-0  32758-4 0  9993
2 27386  98.5487 225.6136 0001160  91.2652 268.8664 14.32248128118631
1 27386U 02009A   04158.96637471 +.00000045 +00000-0 +32758-4 0  9996
2 27386 098.5487 225.7513 0001160 090.8529 269.2787 14.32248153118650
1 27386U 02009A   04159.10609552  .00000013  00000-0  21144-4 0  9994
2 27386  98.5483 225.8892 0001191  95.5502 264.5817 14.32247927118676
1 27386U 02009A   04159.52525743  .00000044  00000-0  32310-4 0  9990
2 27386  98.5483 226.3025 0001170  95.3212 264.8129 14.32248250118739
1 27386U 02009A   04159.80469816  .00000064  00000-0  39979-4 0  9999
2 27386  98.5482 226.5780 0001170  93.6160 266.5164 14.32248459118774
1 27386U 02009A   04159.87455833 +.00000052 +00000-0 +35493-4 0  9994
2 27386 098.5482 226.6469 0001167 093.0296 267.1015 14.32248376118780
1 27386U 02009A   04160.15399947  .00000082  00000-0  46667-4 0  9998
2 27386  98.5483 226.9227 0001142  92.5773 267.5552 14.32248679118824
1 27386U 02009A   04160.50330072  .00000078  00000-0  45017-4 0  9994
2 27386  98.5483 227.2672 0001138  91.8607 268.2709 14.32248721118870
1 27386U 02009A   04160.85260208  .00000081  00000-0  46351-4 0  9991
2 27386  98.5482 227.6114 0001160  91.4086 268.7230 14.32248837118924
